"locator_domain","location_name","street_address","city","state","zip","country_code","store_number","phone","location_type","latitude","longitude","hours_of_operation","page_url"
"https://freemanhealth.com"," Freeman Business Center ","3220 McClelland Boulevard","Joplin","Missouri","64804","US","<MISSING>","417-347-6686","Administrative","<MISSING>","<MISSING>","Monday: 8:00 am - 4:30 pmTuesday: 8:00 am - 4:30 pmWednesday: 8:00 am - 4:30 pmThursday: 8:00 am - 4:30 pmFriday: 8:00 am - 4:30 pm","https://freemanhealth.com/node/386"
"https://freemanhealth.com"," Freeman Hospital East ","932 East 34th Street","Joplin","Missouri","64804","US","<MISSING>","417-347-1111","Administrative","<MISSING>","<MISSING>","<MISSING>","https://freemanhealth.com/location/freeman-hospital-east"
"https://freemanhealth.com"," Freeman Learning Center ","3606 S. Indiana Ave.","Joplin","Missouri","64804","US","<MISSING>","417-347-1610","Administrative","<MISSING>","<MISSING>","<MISSING>","https://freemanhealth.com/location/freeman-learning-center"
"https://freemanhealth.com"," Freeman Screen Team Resource Center ","1130 East 32nd StreetSuite C","Joplin","Missouri","64804","US","<MISSING>","417-347-4430","Administrative","<MISSING>","<MISSING>","<MISSING>","https://freemanhealth.com/location/freeman-screen-team-resource-center"
"https://freemanhealth.com"," Nevada Regional Medical Center ","800 South Ash Street","Nevada","Missouri","64772","US","<MISSING>","417-667-3355","Administrative","<MISSING>","<MISSING>","<MISSING>","https://freemanhealth.com/location/nevada-regional-medical-center"
"https://freemanhealth.com"," Regional Eye Center, PC ","1531 West 32nd StreetSuite 102","Joplin","Missouri","64804","US","<MISSING>","417-347-3630","Administrative","<MISSING>","<MISSING>","<MISSING>","https://freemanhealth.com/location/regional-eye-center-pc"
"https://freemanhealth.com"," Rohmiller Dentistry ","615 East Pennell Street","Carl","Junction,","Missouri","CA","<MISSING>","417-649-7810","Administrative","<MISSING>","<MISSING>","<MISSING>","https://freemanhealth.com/location/rohmiller-dentistry"
"https://freemanhealth.com"," Freeman Learning Center ","3606 S. Indiana Ave.","Joplin","Missouri","64804","US","<MISSING>","417-347-1610","Anesthesiology","<MISSING>","<MISSING>","<MISSING>","https://freemanhealth.com/location/freeman-learning-center"
"https://freemanhealth.com"," Bill & Virginia Leffen Center for Autism ","2808 South Picher Avenue","Joplin","Missouri","64804","US","<MISSING>","417-347-7850","Autism Services","<MISSING>","<MISSING>","Monday: 8:00am - 5:00pmTuesday: 8:00am - 5:00pmWednesday: 8:00am - 5:00pmThursday: 8:00am - 5:00pmFriday: 8:00am - 5:00pm","https://freemanhealth.com/location/bill-virginia-leffen-center-for-autism"
"https://freemanhealth.com"," Freeman Learning Center ","3606 S. Indiana Ave.","Joplin","Missouri","64804","US","<MISSING>","417-347-1610","Autism Services","<MISSING>","<MISSING>","<MISSING>","https://freemanhealth.com/location/freeman-learning-center"
"https://freemanhealth.com"," Freeman Learning Center ","3606 S. Indiana Ave.","Joplin","Missouri","64804","US","<MISSING>","417-347-1610","Bariatric Surgery","<MISSING>","<MISSING>","<MISSING>","https://freemanhealth.com/location/freeman-learning-center"
"https://freemanhealth.com"," Freeman Cornell-Beshore Cancer Institute ","3415 McIntosh Circle","Joplin","Missouri","64804","US","<MISSING>","417-347-4000","Cancer Care","<MISSING>","<MISSING>","Monday: 7:45 am - 4:45 pmTuesday: 7:45 am - 4:45 pmWednesday: 7:45 am - 4:45 pmThursday: 7:45 am - 4:45 pmFriday: 8:00 am - 11:30 am","https://freemanhealth.com/location/freeman-cornell-beshore-cancer-institute"
"https://freemanhealth.com"," Freeman Learning Center ","3606 S. Indiana Ave.","Joplin","Missouri","64804","US","<MISSING>","417-347-1610","Cancer Care","<MISSING>","<MISSING>","<MISSING>","https://freemanhealth.com/location/freeman-learning-center"
"https://freemanhealth.com"," Freeman Radiation Oncology at Freeman East ","932 East 34th Street","Joplin","Missouri","64804","US","<MISSING>","417-347-2200","Cancer Care","<MISSING>","<MISSING>","<MISSING>","https://freemanhealth.com/location/freeman-radiation-oncology-at-freeman-east"
"https://freemanhealth.com"," Jose M. Pacheco-Gil, MD ","2727 McClelland Boulevard","Joplin","Missouri","64804","US","<MISSING>","<MISSING>","Cancer Care","<MISSING>","<MISSING>","<MISSING>","https://freemanhealth.com/location/jose-m-pacheco-gil-md"
"https://freemanhealth.com"," Freeman Learning Center ","3606 S. Indiana Ave.","Joplin","Missouri","64804","US","<MISSING>","417-347-1610","Counseling","<MISSING>","<MISSING>","<MISSING>","https://freemanhealth.com/location/freeman-learning-center"
"https://freemanhealth.com"," Ozark Center - ACT ","530 East 34th StreetSuite 200","Joplin","Missouri","64804","US","<MISSING>","417-347-7065","Counseling","<MISSING>","<MISSING>","<MISSING>","https://freemanhealth.com/location/ozark-center-act"
"https://freemanhealth.com"," Ozark Center - Carl Junction Clinic Children's Services ","106 South Main Street","Carl","Junction,","Missouri","CA","<MISSING>","417-347-7999","Counseling","<MISSING>","<MISSING>","<MISSING>","https://freemanhealth.com/location/ozark-center-carl-junction-clinic-childrens-services"
"https://freemanhealth.com"," Ozark Center - CCP ","530 East 34th Street","Joplin","Missouri","64804","US","<MISSING>","417-347-7630","Counseling","<MISSING>","<MISSING>","<MISSING>","https://freemanhealth.com/location/ozark-center-ccp"
"https://freemanhealth.com"," Ozark Center - Crisis Services ","3006 McClelland Boulevard","Joplin","Missouri","64804","US","<MISSING>","417-347-7720","Counseling","<MISSING>","<MISSING>","<MISSING>","https://freemanhealth.com/location/ozark-center-crisis-services"
"https://freemanhealth.com"," Ozark Center - Developmental Disabilities Targeted Case Management ","3230 Wisconsin AvenueSuite E","Joplin","Missouri","64804","US","<MISSING>","417-347-7643","Counseling","<MISSING>","<MISSING>","<MISSING>","https://freemanhealth.com/location/ozark-center-developmental-disabilities-targeted-case-management"
"https://freemanhealth.com"," Ozark Center - Hope Spring ","3901 East 32nd Street","Joplin","Missouri","64804","US","<MISSING>","417-347-7567","Counseling","<MISSING>","<MISSING>","<MISSING>","https://freemanhealth.com/location/ozark-center-hope-spring"
"https://freemanhealth.com"," Ozark Center - Lamar Clinic ","307 West 11th Street","Lamar","Missouri","64759","US","<MISSING>","417-347-8010","Counseling","<MISSING>","<MISSING>","<MISSING>","https://freemanhealth.com/location/ozark-center-lamar-clinic"
"https://freemanhealth.com"," Ozark Center - Neosho Adult and Children's Services ","204 North Lincoln Street","Neosho","Missouri","64850","US","<MISSING>","417-451-4565","Counseling","<MISSING>","<MISSING>","<MISSING>","https://freemanhealth.com/location/ozark-center-neosho-adult-and-childrens-services"
"https://freemanhealth.com"," Ozark Center - Ozark Oaks ","3405 South Schifferdecker Avenue","Joplin","Missouri","64804","US","<MISSING>","<MISSING>","Counseling","<MISSING>","<MISSING>","<MISSING>","https://freemanhealth.com/location/ozark-center-ozark-oaks"
"https://freemanhealth.com"," Ozark Center Urgent Behavioral Solutions ","3230 Wisconsin Ave, Suite A, Joplin, MOSuite A","Joplin","Missouri","64804","US","<MISSING>","417-347-7800","Counseling","<MISSING>","<MISSING>","Monday: 11:00 am – 9:00 pmTuesday: 11:00 am – 9:00 pmWednesday: 11:00 am – 9:00 pmThursday: 11:00 am – 9:00 pmFriday: 11:00 am – 9:00 pmSaturday: 1:00 pm – 9:00 pmSunday: 1:00 pm – 9:00 pm","https://freemanhealth.com/location/ozark-center-urgent-behavioral-solutions"
"https://freemanhealth.com"," Turnaround Ranch ","1949 Snowberry Lane","Joplin","Missouri","64804","US","<MISSING>","417-347-7860","Counseling","<MISSING>","<MISSING>","<MISSING>","https://freemanhealth.com/location/turnaround-ranch"
"https://freemanhealth.com"," Will's Place ","1800 West 30th Street","Joplin","Missouri","64804","US","<MISSING>","417-347-7580","Counseling","<MISSING>","<MISSING>","<MISSING>","https://freemanhealth.com/location/wills-place"
"https://freemanhealth.com"," Freeman Learning Center ","3606 S. Indiana Ave.","Joplin","Missouri","64804","US","<MISSING>","417-347-1610","Crisis Services","<MISSING>","<MISSING>","<MISSING>","https://freemanhealth.com/location/freeman-learning-center"
"https://freemanhealth.com"," Ozark Center Urgent Behavioral Solutions ","3230 Wisconsin Ave, Suite A, Joplin, MOSuite A","Joplin","Missouri","64804","US","<MISSING>","417-347-7800","Crisis Services","<MISSING>","<MISSING>","Monday: 11:00 am – 9:00 pmTuesday: 11:00 am – 9:00 pmWednesday: 11:00 am – 9:00 pmThursday: 11:00 am – 9:00 pmFriday: 11:00 am – 9:00 pmSaturday: 1:00 pm – 9:00 pmSunday: 1:00 pm – 9:00 pm","https://freemanhealth.com/location/ozark-center-urgent-behavioral-solutions"
"https://freemanhealth.com"," Freeman Dermatology and Skin Cancer Center ","3202 McIntosh CircleSuite 103","Joplin","Missouri","64804","US","<MISSING>","417-347-8066","Dermatology","<MISSING>","<MISSING>","Monday: 8:00 am - 5:00 pmTuesday: 8:00 am - 5:00 pmWednesday: 8:00 am - 5:00 pmThursday: 8:00 am - 5:00 pmFriday: 8:00 am - 12:00 pm","https://freemanhealth.com/location/freeman-dermatology-and-skin-cancer-center"
"https://freemanhealth.com"," Carthage Neighborhood Care ","1500 South Case Street","Carthage","Missouri","64836","US","<MISSING>","417-359-5948","Ear, Nose and Throat","<MISSING>","<MISSING>","<MISSING>","https://freemanhealth.com/location/carthage-neighborhood-care"
"https://freemanhealth.com"," Freeman Ear, Nose & Throat Center ","1331 West 32nd Street","Joplin","Missouri","64804","US","<MISSING>","417-347-6767","Ear, Nose and Throat","<MISSING>","<MISSING>","M: 8:00 am - 4:30 pmT: 8:00 am - 4:30 pmW: 8:00 am - 4:30 pmT: 8:00 am - 4:30 pmF: 8:00 am - 3:00 pm","https://freemanhealth.com/location/freeman-ear-nose-throat-center"
"https://freemanhealth.com"," Freeman Learning Center ","3606 S. Indiana Ave.","Joplin","Missouri","64804","US","<MISSING>","417-347-1610","Ear, Nose and Throat","<MISSING>","<MISSING>","<MISSING>","https://freemanhealth.com/location/freeman-learning-center"
"https://freemanhealth.com"," Joplin Ear, Nose and Throat ","1920 East 32nd Street","Joplin","Missouri","64804","US","<MISSING>","417-782-4613","Ear, Nose and Throat","<MISSING>","<MISSING>","<MISSING>","https://freemanhealth.com/location/joplin-ear-nose-and-throat"
"https://freemanhealth.com"," Joplin Ophthalmology ","2216 East 32nd StreetSuite 202","Joplin","Missouri","64804","US","<MISSING>","417-781-3630","Ear, Nose and Throat","<MISSING>","<MISSING>","<MISSING>","https://freemanhealth.com/location/joplin-ophthalmology"
"https://freemanhealth.com"," Lamar Neighborhood Care ","307 West 11th Street","Lamar","Missouri","64759","US","<MISSING>","417-682-3300","Ear, Nose and Throat","<MISSING>","<MISSING>","<MISSING>","https://freemanhealth.com/location/lamar-neighborhood-care"
"https://freemanhealth.com"," Midwest Regional Allergy, Asthma, Arthritis & Osteoporosis Center ","1027 South Main Street","Joplin","Missouri","64801","US","<MISSING>","417-624-0050","Ear, Nose and Throat","<MISSING>","<MISSING>","<MISSING>","https://freemanhealth.com/location/midwest-regional-allergy-asthma-arthritis-osteoporosis-center"
"https://freemanhealth.com"," Trey Butler, DO ","2431 East 32nd Street","Joplin","Missouri","64804","US","<MISSING>","417-781-9000","Ear, Nose and Throat","<MISSING>","<MISSING>","<MISSING>","https://freemanhealth.com/location/trey-butler-do"
"https://freemanhealth.com"," Freeman Learning Center ","3606 S. Indiana Ave.","Joplin","Missouri","64804","US","<MISSING>","417-347-1610","Emergency Services","<MISSING>","<MISSING>","<MISSING>","https://freemanhealth.com/location/freeman-learning-center"
"https://freemanhealth.com"," Freeman Neosho Hospital ","113 West Hickory Street","Neosho","Missouri","64850","US","<MISSING>","417-451-1234","Emergency Services","<MISSING>","<MISSING>","<MISSING>","https://freemanhealth.com/location/freeman-neosho-hospital"
"https://freemanhealth.com"," Freeman Neosho Physician Group ","336 South Jefferson","Neosho","Missouri","64850","US","<MISSING>","417-455-4200","Emergency Services","<MISSING>","<MISSING>","Monday: 8:00 am - 5:00 pmTuesday: 8:00 am - 5:00 pmWednesday: 8:00 am - 5:00 pmThursday: 8:00 am - 5:00 pmFriday: 8:00 am - 5:00 pm","https://freemanhealth.com/location/freeman-neosho-physician-group"
"https://freemanhealth.com"," Freeman Diabetes & Endocrine Institute ","1532 West 32nd StreetSuite 402","Joplin","Missouri","64804","US","<MISSING>","417-347-8740","Endocrinology","<MISSING>","<MISSING>","Monday: 8:00 am - 5:00 pmTuesday: 8:00 am - 5:00 pmWednesday: 8:00 am - 5:00 pmThursday: 8:00 am - 5:00 pmFriday: 8:00 am - 12:00 pm","https://freemanhealth.com/location/freeman-diabetes-endocrine-institute"
"https://freemanhealth.com"," Freeman Learning Center ","3606 S. Indiana Ave.","Joplin","Missouri","64804","US","<MISSING>","417-347-1610","Endocrinology","<MISSING>","<MISSING>","<MISSING>","https://freemanhealth.com/location/freeman-learning-center"
"https://freemanhealth.com"," Akuna Family Medicine ","1020 McIntosh CircleSuite 202","Joplin","Missouri","64804","US","<MISSING>","417-347-2909","Family Medicine","<MISSING>","<MISSING>","Monday: 8:00 am - 5:00 pmTuesday: 8:00 am - 5:00 pmWednesday: 8:00 am - 5:00 pmThursday: 8:00 am - 5:00 pmFriday: 8:00 am - 12:00 pm","https://freemanhealth.com/location/akuna-family-medicine"
"https://freemanhealth.com"," Baxter Springs Neighborhood Care ","322 East 11th Street","Baxter","Springs,","Kansas","CA","<MISSING>","620-856-2182","Family Medicine","<MISSING>","<MISSING>","Monday: 7:00 am - 4:00 pmTuesday: 7:00 am - 4:00 pmWednesday: 7:00 am - 4:00 pmThursday: 7:00 am - 4:00 pmFriday: 7:00 am - 11:00 am","https://freemanhealth.com/location/baxter-springs-neighborhood-care"
"https://freemanhealth.com"," C.H. Bentlage Building ","3202 McIntosh Circle","Joplin","Missouri","64804","US","<MISSING>","417-347-1111","Family Medicine","<MISSING>","<MISSING>","<MISSING>","https://freemanhealth.com/location/ch-bentlage-building"
"https://freemanhealth.com"," Community Health Center of Southeast Kansas - Pittsburg ","3011 North Michigan Street","Pittsburg","Kansas","66762","US","<MISSING>","620-231-9873","Family Medicine","<MISSING>","<MISSING>","Monday: 8:00 am–7:00 pmTuesday: 8:00 am–7:00 pmWednesday: 8:00 am–7:00 pmThursday: 8:00 am–7:00 pmFriday: 8:00 am–5:00 pmSaturday:  8:00 am–5:00 pm","https://freemanhealth.com/location/community-health-center-of-southeast-kansas-pittsburg"
"https://freemanhealth.com"," Community Health Center of Southeast Kansas - Arma ","601 E Washington Street","Arma","Kansas","66712","US","<MISSING>","6203474033","Family Medicine","<MISSING>","<MISSING>","Monday: 8:00 am–5:00 pmTuesday: 9:00 am–6:00 pmWednesday: 8:00 am–5:00 pmThursday: 8:00 am–5:00 pmFriday: 8:00 am–5:00 pm","https://freemanhealth.com/location/community-health-center-of-southeast-kansas-arma"
"https://freemanhealth.com"," Community Health Center of Southeast Kansas - Coffeyville "," 801 West 8th Street","Coffeyville","Kansas","67337","US","<MISSING>","620-251-4300","Family Medicine","<MISSING>","<MISSING>","Monday: 8:00 am–5:00 pmTuesday: 8:00 am–5:00 pmWednesday: 8:00 am–5:00 pmThursday: 8:00 am–7:00 pmFriday: 8:00 am–5:00 pmSaturday: 9:00 am–3:00 pm","https://freemanhealth.com/location/community-health-center-of-southeast-kansas-coffeyville"
"https://freemanhealth.com"," Community Health Center of Southeast Kansas - Fort Scott ","1624 South National","Fort","Scott,","Kansas","CA","<MISSING>","620-223-8428","Family Medicine","<MISSING>","<MISSING>","Monday: 7:00 am–7:00 pmTuesday: 7:00 am–7:00 pmWednesday: 7:00 am–7:00 pmThursday: 7:00 am–7:00 pmFriday: 7:00 am–7:00 pmSaturday: 7:00 am–7:00 pmSunday: 7:00 am–7:00 pm","https://freemanhealth.com/location/community-health-center-of-southeast-kansas-fort-scott"
"https://freemanhealth.com"," Community Health Center of Southeast Kansas - Mound City ","302 North 1st Street","Mound","CIty,","Kansas","CA","<MISSING>","913-795-2203","Family Medicine","<MISSING>","<MISSING>","Monday: 8:00 am–5:00 pmTuesday: 8:00 am–5:00 pmWednesday: 8:00 am–5:00 pmThursday: 8:00 am–5:00 pmFriday: 8:00 am–5:00 pm","https://freemanhealth.com/location/community-health-center-of-southeast-kansas-mound-city"
"https://freemanhealth.com"," Community Health Center of Southeast Kansas - Pleasanton ","11155 Tucker Road","Pleasanton","Kansas","66075","US","<MISSING>","913-352-8379","Family Medicine","<MISSING>","<MISSING>","<MISSING>","https://freemanhealth.com/location/community-health-center-of-southeast-kansas-pleasanton"
"https://freemanhealth.com"," Community Health Center of Southeast Kansas - Baxter Springs ","2990 Military Avenue","Baxter","Springs,","Kansas","CA","<MISSING>","620-856-2900","Family Medicine","<MISSING>","<MISSING>","<MISSING>","https://freemanhealth.com/location/community-health-center-of-southeast-kansas-baxter-springs"
"https://freemanhealth.com"," Community Health Center of Southeast Kansas - Columbus ","120 West Sycamore Street","Columbus","Kansas","66725","US","<MISSING>","620-429-2101","Family Medicine","<MISSING>","<MISSING>","<MISSING>","https://freemanhealth.com/location/community-health-center-of-southeast-kansas-columbus"
"https://freemanhealth.com"," Community Health Center of Southeast Kansas - Fort Scott Medical Clinic ","401 Woodland Hills Boulevard","Fort","Scott,","Kansas","CA","<MISSING>","620-223-8040","Family Medicine","<MISSING>","<MISSING>","<MISSING>","https://freemanhealth.com/node/341"
"https://freemanhealth.com"," D'Amour Family Medicine ","1905 West 32nd StreetSuite 303","Joplin","Missouri","64804","US","<MISSING>","417-782-4100","Family Medicine","<MISSING>","<MISSING>","<MISSING>","https://freemanhealth.com/node/346"
"https://freemanhealth.com"," Dental Care Center ","2101 South Jackson Avenue","Joplin","Missouri","64804","US","<MISSING>","417-781-1550","Family Medicine","<MISSING>","<MISSING>","<MISSING>","https://freemanhealth.com/node/356"
"https://freemanhealth.com"," Downstream Casino Resort ","69300 East Nee Road","Quapaw","Oklahoma","74363","US","<MISSING>","918-919-6000","Family Medicine","<MISSING>","<MISSING>","<MISSING>","https://freemanhealth.com/node/3476"
"https://freemanhealth.com"," Ferguson Medical Laboratory ","1801 West 32nd StreetBuilding B, Suite 101","Joplin","Missouri","64804","US","<MISSING>","417-347-1111","Family Medicine","<MISSING>","<MISSING>","<MISSING>","https://freemanhealth.com/node/371"
"https://freemanhealth.com"," Freeman Carl Junction Family Medicine ","104 South Main St.","Carl","Junction,","Missouri","CA","<MISSING>","417-347-8656","Family Medicine","<MISSING>","<MISSING>","Monday: 8:30 am – 4:30 pmTuesday: 8:30 am – 4:30 pmWednesday: 8:30 am – 4:30 pmThursday: 8:30 am – 4:30 pmFriday: 8:30 am – 12:00 pm","https://freemanhealth.com/location/freeman-carl-junction-family-medicine"
"https://freemanhealth.com"," Freeman Clinic of Anderson ","501 Park Street","Anderson","Missouri","64831","US","<MISSING>","417-845-0545","Family Medicine","<MISSING>","<MISSING>","Monday: 8:00 am - 5:00 pmTuesday: 8:00 am - 5:00 pmWednesday: 8:00 am - 5:00 pmThursday: 8:00 am - 5:00 pmFriday: 8:00 am - 3:00 pm","https://freemanhealth.com/location/freeman-clinic-of-anderson"
"https://freemanhealth.com"," Freeman Clinic of Baxter Springs ","322 East 11th Street","Baxter","Springs,","Kansas","CA","<MISSING>","620-856-2182","Family Medicine","<MISSING>","<MISSING>","Monday: 7:00 am - 4:00 pmTuesday: 7:00 am - 4:00 pmWednesday: 7:00 am - 4:00 pmThursday: 7:00 am - 4:00 pmFriday: 7:00 am - 11:00 am","https://freemanhealth.com/location/freeman-clinic-of-baxter-springs"
"https://freemanhealth.com"," Freeman Clinic of Carthage ","719 West Centennial Avenue","Carthage","Missouri","64836","US","<MISSING>","417-359-9502","Family Medicine","<MISSING>","<MISSING>","Monday: 8:00 am - 5:00 pmTuesday: 8:00 am - 5:00 pmWednesday: 8:00 am - 5:00 pmThursday: 8:00 am - 5:00 pmFriday: 8:00 am - 5:00 pm","https://freemanhealth.com/location/freeman-clinic-of-carthage"
"https://freemanhealth.com"," Freeman Family Medicine ","3202 McIntosh CircleSuite 301","Joplin","Missouri","64804","US","<MISSING>","417-347-2540","Family Medicine","<MISSING>","<MISSING>","Monday: 8:00 am - 5:00 pmTuesday: 8:00 am - 5:00 pmWednesday: 8:00 am - 5:00 pmThursday: 8:00 am - 5:00 pmFriday: 8:00 am - 12:00 pm","https://freemanhealth.com/location/freeman-family-medicine"
"https://freemanhealth.com"," Freeman Family Medicine Associates ","702 East 34th StreetSuite 202","Joplin","Missouri","64804","US","<MISSING>","417-347-2526","Family Medicine","<MISSING>","<MISSING>","Monday: 8:00 am - 5:00 pmTuesday: 8:00 am - 5:00 pmWednesday: 8:00 am - 5:00 pmThursday: 8:00 am - 5:00 pmFriday: 8:00 am - 12:00 pm","https://freemanhealth.com/location/freeman-family-medicine-associates"
"https://freemanhealth.com"," Freeman Family Practice ","3202 McIntosh CircleSuite 302","Joplin","Missouri","64804","US","<MISSING>","417-347-8525","Family Medicine","<MISSING>","<MISSING>","Monday: 8:00 am - 5:00 pmTuesday: 8:00 am - 5:00 pmWednesday: 8:00 am - 5:00 pmThursday: 8:00 am - 5:00 pmFriday: 8:00 am - 12:00 pm","https://freemanhealth.com/location/freeman-family-practice"
"https://freemanhealth.com"," Freeman Lamar Family Care ","307 West 11th StreetP.O. Box 86","Lamar","Missouri","64759","US","<MISSING>","417-682-3300","Family Medicine","<MISSING>","<MISSING>","Monday: 8:00 am - 4:30 pmTuesday: 8:00 am - 4:30 pmWednesday: 8:00 am - 4:30 pmThursday: 8:00 am - 4:30 pmFriday: 8:00 am - 12:00 pm","https://freemanhealth.com/location/freeman-lamar-family-care"
"https://freemanhealth.com"," Freeman Learning Center ","3606 S. Indiana Ave.","Joplin","Missouri","64804","US","<MISSING>","417-347-1610","Family Medicine","<MISSING>","<MISSING>","<MISSING>","https://freemanhealth.com/location/freeman-learning-center"
"https://freemanhealth.com"," Freeman Neosho Physician Group ","336 South Jefferson","Neosho","Missouri","64850","US","<MISSING>","417-455-4200","Family Medicine","<MISSING>","<MISSING>","Monday: 8:00 am - 5:00 pmTuesday: 8:00 am - 5:00 pmWednesday: 8:00 am - 5:00 pmThursday: 8:00 am - 5:00 pmFriday: 8:00 am - 5:00 pm","https://freemanhealth.com/location/freeman-neosho-physician-group"
"https://freemanhealth.com"," Freeman Physician Group of Pittsburg ","1201 Centennial Drive","Pittsburg","Kansas","66762","US","<MISSING>","620-231-0958","Family Medicine","<MISSING>","<MISSING>","<MISSING>","https://freemanhealth.com/location/freeman-physician-group-of-pittsburg"
"https://freemanhealth.com"," Freeman Seneca Family Medicine ","1606 Olive Street","Seneca","Missouri","64865","US","<MISSING>","417-776-5900","Family Medicine","<MISSING>","<MISSING>","Monday: 8:00 am - 4:00 pmTuesday: 8:00 am - 4:00 pmWednesday: 8:00 am - 4:00 pmThursday: 8:00 am - 4:00 pmFriday: 8:00 am - 12:00 pm","https://freemanhealth.com/location/freeman-seneca-family-medicine"
"https://freemanhealth.com"," Lamar Neighborhood Care ","307 West 11th Street","Lamar","Missouri","64759","US","<MISSING>","417-682-3300","Family Medicine","<MISSING>","<MISSING>","<MISSING>","https://freemanhealth.com/location/lamar-neighborhood-care"
"https://freemanhealth.com"," Michael Knapp, DO ","601 South Schifferdecker","Joplin","Missouri","64804","US","<MISSING>","417-781-1929","Family Medicine","<MISSING>","<MISSING>","<MISSING>","https://freemanhealth.com/location/michael-knapp-do"
"https://freemanhealth.com"," Prime Care Family Medicine ","117 East Hickory Street","Neosho","Missouri","64850","US","<MISSING>","417-451-4545","Family Medicine","<MISSING>","<MISSING>","<MISSING>","https://freemanhealth.com/location/prime-care-family-medicine"
"https://freemanhealth.com"," Seneca Neighborhood Care ","1606 Olive St.,","Seneca","Missouri","64865","US","<MISSING>","417-776-5900","Family Medicine","<MISSING>","<MISSING>","Monday: 8:00 am – 4:00 pmTuesday: 8:00 am – 4:00 pmWednesday: 8:00 am – 4:00 pmThursday: 8:00 am – 4:00 pmFriday 8:00 am – 12:00 pmClosed daily from 12:00 pm – 1:00 pm","https://freemanhealth.com/location/seneca-neighborhood-care"
"https://freemanhealth.com"," Stephen Bazzano, DO ","111 East 7th Street","Galena","Kansas","66739","US","<MISSING>","620-783-1358","Family Medicine","<MISSING>","<MISSING>","<MISSING>","https://freemanhealth.com/location/stephen-bazzano-do"
"https://freemanhealth.com"," Sweeten Medical Clinic ","1606 Olive Street","Seneca","Missouri","64865","US","<MISSING>","417-317-4135","Family Medicine","<MISSING>","<MISSING>","<MISSING>","https://freemanhealth.com/location/sweeten-medical-clinic"
"https://freemanhealth.com"," C.H. Bentlage Building ","3202 McIntosh Circle","Joplin","Missouri","64804","US","<MISSING>","417-347-1111","First Care","<MISSING>","<MISSING>","<MISSING>","https://freemanhealth.com/location/ch-bentlage-building"
"https://freemanhealth.com"," Freeman First Care ","3202 McIntosh Circle DriveSuite 103","Joplin","Missouri","64804","US","<MISSING>","417-347-8200","First Care","<MISSING>","<MISSING>","Monday: 8:00 am - 5:00 pmTuesday: 8:00 am - 5:00 pmWednesday: 8:00 am - 5:00 pmThursday: 8:00 am - 5:00 pmFriday: 8:00 am - 5:00 pm","https://freemanhealth.com/location/freeman-first-care"
"https://freemanhealth.com"," Freeman Learning Center ","3606 S. Indiana Ave.","Joplin","Missouri","64804","US","<MISSING>","417-347-1610","First Care","<MISSING>","<MISSING>","<MISSING>","https://freemanhealth.com/location/freeman-learning-center"
"https://freemanhealth.com"," Allan Weston, MD ","198 Four State DriveSuite 6","Galena","Kansas","66739","US","<MISSING>","417-347-1111","Gastroenterology","<MISSING>","<MISSING>","<MISSING>","https://freemanhealth.com/location/allan-weston-md"
"https://freemanhealth.com"," Freeman Center for Digestive Health ","3333 McIntosh CircleSuite 3","Joplin","Missouri","64804","US","<MISSING>","417-347-8636","Gastroenterology","<MISSING>","<MISSING>","Monday: 8:00 am - 5:00 pmTuesday: 8:00 am - 5:00 pmWednesday: 8:00 am - 5:00 pmThursday: 8:00 am - 5:00 pmFriday: 8:00 am - 5:00 pm","https://freemanhealth.com/location/freeman-center-for-digestive-health"
"https://freemanhealth.com"," Freeman Gastroenterology ","1020 McIntosh CircleSuite 203","Joplin","Missouri","64804","US","<MISSING>","417-347-8025","Gastroenterology","<MISSING>","<MISSING>","Monday: 8:00 am - 5:00 pmTuesday: 8:00 am - 5:00 pmWednesday: 8:00 am - 5:00 pmThursday: 8:00 am - 5:00 pmFriday: 8:00 am -12:00 pm","https://freemanhealth.com/location/freeman-gastroenterology"
"https://freemanhealth.com"," Freeman Learning Center ","3606 S. Indiana Ave.","Joplin","Missouri","64804","US","<MISSING>","417-347-1610","Gastroenterology","<MISSING>","<MISSING>","<MISSING>","https://freemanhealth.com/location/freeman-learning-center"
"https://freemanhealth.com"," Freeman Neosho Hospital ","113 West Hickory Street","Neosho","Missouri","64850","US","<MISSING>","417-451-1234","Gastroenterology","<MISSING>","<MISSING>","<MISSING>","https://freemanhealth.com/location/freeman-neosho-hospital"
"https://freemanhealth.com"," Gastroenterology of the Four States, LLC ","2024 S Maiden Ln Ste 204, Joplin, MO, 64804Suite 204","Joplin","Missouri","64804","US","<MISSING>","417-222-3434","Gastroenterology","<MISSING>","<MISSING>","<MISSING>","https://freemanhealth.com/node/361"
"https://freemanhealth.com"," Joplin Neighborhood Care ","3333 McIntosh Circle Drive","Joplin","Missouri","64804","US","<MISSING>","<MISSING>","Gastroenterology","<MISSING>","<MISSING>","<MISSING>","https://freemanhealth.com/location/joplin-neighborhood-care"
"https://freemanhealth.com"," Ozark Gastroenterology, Inc. ","2216 East 32nd StreetSuite 103","Joplin","Missouri","64804","US","<MISSING>","417-623-5250","Gastroenterology","<MISSING>","<MISSING>","<MISSING>","https://freemanhealth.com/location/ozark-gastroenterology-inc"
"https://freemanhealth.com"," Dr. Steve Hughes ","1020 McIntosh CircleSuite 102","Joplin","Missouri","64804","US","<MISSING>","417-347-8210","General Surgery","<MISSING>","<MISSING>","<MISSING>","https://freemanhealth.com/location/dr-steve-hughes"
"https://freemanhealth.com"," Facial Aesthetic & Laser Centre ","620 West 32nd Street","Joplin","Missouri","64804","US","<MISSING>","417-623-5111","General Surgery","<MISSING>","<MISSING>","<MISSING>","https://freemanhealth.com/node/376"
"https://freemanhealth.com"," Freeman Buchele Surgical Services ","1020 McIntosh CircleSuite 201","Joplin","Missouri","64804","US","<MISSING>","417-347-8585","General Surgery","<MISSING>","<MISSING>","Monday: 8:00 am – 5:00 pmTuesday: 8:00 am – 5:00 pmWednesday: 8:00 am – 5:00 pmThursday: 8:00 am – 5:00 pmFriday: 8:00 am – 12:00 pm","https://freemanhealth.com/location/freeman-buchele-surgical-services"
"https://freemanhealth.com"," Freeman General & Vascular Surgical Group ","3302 McIntosh CircleSuite 1","Joplin","Missouri","64804","US","<MISSING>","417-347-7272","General Surgery","<MISSING>","<MISSING>","Monday: 8:00 am - 5:00 pmTuesday: 8:00 am - 5:00 pmWednesday: 8:00 am - 5:00 pmThursday: 8:00 am - 5:00 pmFriday: 8:00 am - 12:00 pm","https://freemanhealth.com/location/freeman-general-vascular-surgical-group"
"https://freemanhealth.com"," Freeman Learning Center ","3606 S. Indiana Ave.","Joplin","Missouri","64804","US","<MISSING>","417-347-1610","General Surgery","<MISSING>","<MISSING>","<MISSING>","https://freemanhealth.com/location/freeman-learning-center"
"https://freemanhealth.com"," Freeman Neosho Hospital ","113 West Hickory Street","Neosho","Missouri","64850","US","<MISSING>","417-451-1234","General Surgery","<MISSING>","<MISSING>","<MISSING>","https://freemanhealth.com/location/freeman-neosho-hospital"
"https://freemanhealth.com"," Freeman Neosho Physician Group ","336 South Jefferson","Neosho","Missouri","64850","US","<MISSING>","417-455-4200","General Surgery","<MISSING>","<MISSING>","Monday: 8:00 am - 5:00 pmTuesday: 8:00 am - 5:00 pmWednesday: 8:00 am - 5:00 pmThursday: 8:00 am - 5:00 pmFriday: 8:00 am - 5:00 pm","https://freemanhealth.com/location/freeman-neosho-physician-group"
"https://freemanhealth.com"," Freeman Surgical Associates ","1020 McIntosh CircleSuite 102","Joplin","Missouri","64804","US","<MISSING>","417-347-4177","General Surgery","<MISSING>","<MISSING>","Monday: 8:00 am - 5:00 pmTuesday: 8:00 am - 5:00 pmWednesday: 8:00 am - 5:00 pmThursday: 8:00 am - 5:00 pmFriday: Closed","https://freemanhealth.com/location/freeman-surgical-associates"
"https://freemanhealth.com"," Hand and Microsurgery Associates ","2727 East 32nd StreetSuite A","Joplin","Missouri","64804","US","<MISSING>","417-621-9000","General Surgery","<MISSING>","<MISSING>","<MISSING>","https://freemanhealth.com/location/hand-and-microsurgery-associates"
"https://freemanhealth.com"," Freeman Center for Geriatric Medicine ","931 East 32nd Street","Joplin","Missouri","64804","US","<MISSING>","417-347-4374","Geriatric Medicine","<MISSING>","<MISSING>","Monday: 8:00 am - 5:00 pmTuesday: 8:00 am - 5:00 pmWednesday: 8:00 am - 5:00 pmThursday: 8:00 am - 5:00 pmFriday: 8:00 am - 5:00 pm","https://freemanhealth.com/location/freeman-center-for-geriatric-medicine"
"https://freemanhealth.com"," Freeman Learning Center ","3606 S. Indiana Ave.","Joplin","Missouri","64804","US","<MISSING>","417-347-1610","Geriatric Medicine","<MISSING>","<MISSING>","<MISSING>","https://freemanhealth.com/location/freeman-learning-center"
"https://freemanhealth.com"," Carthage Neighborhood Care ","1500 South Case Street","Carthage","Missouri","64836","US","<MISSING>","417-359-5948","Heart and Vascular Care","<MISSING>","<MISSING>","<MISSING>","https://freemanhealth.com/location/carthage-neighborhood-care"
"https://freemanhealth.com"," Freeman Heart & Vascular Institute ","1102 West 32nd StreetSuite 300","Joplin","Missouri","64804","US","<MISSING>","417-347-5000","Heart and Vascular Care","<MISSING>","<MISSING>","Monday: 8:00 am - 5:00 pmTuesday: 8:00 am - 5:00 pmWednesday: 8:00 am - 5:00 pmThursday: 8:00 am - 5:00 pmFriday: 8:00 am - 5:00 pm","https://freemanhealth.com/location/freeman-heart-vascular-institute"
"https://freemanhealth.com"," Freeman Heart & Vascular Institute - McIntosh Circle ","3333 McIntosh CircleSuite 4","Joplin","Missouri","64804","US","<MISSING>","417-347-6400","Heart and Vascular Care","<MISSING>","<MISSING>","Monday: 8:00 am - 5:00 pmTuesday: 8:00 am - 5:00 pmWednesday: 8:00 am - 5:00 pmThursday: 8:00 am - 5:00 pmFriday: 8:00 am - 2:00 pm","https://freemanhealth.com/location/freeman-heart-vascular-institute-mcintosh-circle"
"https://freemanhealth.com"," Freeman Heart & Vascular Institute - Miami ","30 B Street SW","Miami","Oklahoma","74354","US","<MISSING>","918-542-2273","Heart and Vascular Care","<MISSING>","<MISSING>","<MISSING>","https://freemanhealth.com/location/freeman-heart-vascular-institute-miami"
"https://freemanhealth.com"," Freeman Heart & Vascular Institute - Pittsburg ","1201 East Centennial Drive","Pittsburg","Kansas","66762","US","<MISSING>","620-231-0958","Heart and Vascular Care","<MISSING>","<MISSING>","<MISSING>","https://freemanhealth.com/location/freeman-heart-vascular-institute-pittsburg"
"https://freemanhealth.com"," Freeman Heart & Vascular Institute - Girard ","307 North Hospital Drive","Girard","Kansas","66743","US","<MISSING>","417-347-5000","Heart and Vascular Care","<MISSING>","<MISSING>","<MISSING>","https://freemanhealth.com/location/freeman-heart-vascular-institute-girard"
"https://freemanhealth.com"," Freeman Heart & Vascular Institute - Grove ","1101 East 13th StreetSuite A, B & C","Grove","Oklahoma","74344","US","<MISSING>","918-786-8888","Heart and Vascular Care","<MISSING>","<MISSING>","<MISSING>","https://freemanhealth.com/location/freeman-heart-vascular-institute-grove"
"https://freemanhealth.com"," Freeman Heart & Vascular Institute - Parsons ","1902 South US Highway 59Building E, Suite 202","Parsons","Kansas","67357","US","<MISSING>","620-421-5203","Heart and Vascular Care","<MISSING>","<MISSING>","<MISSING>","https://freemanhealth.com/location/freeman-heart-vascular-institute-parsons"
"https://freemanhealth.com"," Freeman Learning Center ","3606 S. Indiana Ave.","Joplin","Missouri","64804","US","<MISSING>","417-347-1610","Heart and Vascular Care","<MISSING>","<MISSING>","<MISSING>","https://freemanhealth.com/location/freeman-learning-center"
"https://freemanhealth.com"," Freeman Neosho Physician Group ","336 South Jefferson","Neosho","Missouri","64850","US","<MISSING>","417-455-4200","Heart and Vascular Care","<MISSING>","<MISSING>","Monday: 8:00 am - 5:00 pmTuesday: 8:00 am - 5:00 pmWednesday: 8:00 am - 5:00 pmThursday: 8:00 am - 5:00 pmFriday: 8:00 am - 5:00 pm","https://freemanhealth.com/location/freeman-neosho-physician-group"
"https://freemanhealth.com"," Freeman Physician Group of Pittsburg ","1201 Centennial Drive","Pittsburg","Kansas","66762","US","<MISSING>","620-231-0958","Heart and Vascular Care","<MISSING>","<MISSING>","<MISSING>","https://freemanhealth.com/location/freeman-physician-group-of-pittsburg"
"https://freemanhealth.com"," Joplin Neighborhood Care ","3333 McIntosh Circle Drive","Joplin","Missouri","64804","US","<MISSING>","<MISSING>","Heart and Vascular Care","<MISSING>","<MISSING>","<MISSING>","https://freemanhealth.com/location/joplin-neighborhood-care"
"https://freemanhealth.com"," Lamar Neighborhood Care ","307 West 11th Street","Lamar","Missouri","64759","US","<MISSING>","417-682-3300","Heart and Vascular Care","<MISSING>","<MISSING>","<MISSING>","https://freemanhealth.com/location/lamar-neighborhood-care"
"https://freemanhealth.com"," Freeman Learning Center ","3606 S. Indiana Ave.","Joplin","Missouri","64804","US","<MISSING>","417-347-1610","Home Care","<MISSING>","<MISSING>","<MISSING>","https://freemanhealth.com/location/freeman-learning-center"
"https://freemanhealth.com"," Freeman Learning Center ","3606 S. Indiana Ave.","Joplin","Missouri","64804","US","<MISSING>","417-347-1610","Hospitalists","<MISSING>","<MISSING>","<MISSING>","https://freemanhealth.com/location/freeman-learning-center"
"https://freemanhealth.com"," Freeman Infectious Diseases ","3333 McIntosh CircleSuite 6","Joplin","Missouri","64804","US","<MISSING>","417-347-8322","Infectious Diseases","<MISSING>","<MISSING>","Monday: 8:00 am - 5:00 pmTuesday: 8:00 am - 5:00 pmWednesday: 8:00 am - 5:00 pmThursday: 8:00 am - 5:00 pmFriday: 8:00 am - 12:00 pm","https://freemanhealth.com/location/freeman-infectious-diseases"
"https://freemanhealth.com"," Freeman Learning Center ","3606 S. Indiana Ave.","Joplin","Missouri","64804","US","<MISSING>","417-347-1610","Infectious Diseases","<MISSING>","<MISSING>","<MISSING>","https://freemanhealth.com/location/freeman-learning-center"
"https://freemanhealth.com"," Joplin Neighborhood Care ","3333 McIntosh Circle Drive","Joplin","Missouri","64804","US","<MISSING>","<MISSING>","Infectious Diseases","<MISSING>","<MISSING>","<MISSING>","https://freemanhealth.com/location/joplin-neighborhood-care"
"https://freemanhealth.com"," Freeman Learning Center ","3606 S. Indiana Ave.","Joplin","Missouri","64804","US","<MISSING>","417-347-1610","Infusion Services","<MISSING>","<MISSING>","<MISSING>","https://freemanhealth.com/location/freeman-learning-center"
"https://freemanhealth.com"," Freeman Learning Center ","3606 S. Indiana Ave.","Joplin","Missouri","64804","US","<MISSING>","417-347-1610","Intensive Care Unit","<MISSING>","<MISSING>","<MISSING>","https://freemanhealth.com/location/freeman-learning-center"
"https://freemanhealth.com"," C.H. Bentlage Building ","3202 McIntosh Circle","Joplin","Missouri","64804","US","<MISSING>","417-347-1111","Internal Medicine","<MISSING>","<MISSING>","<MISSING>","https://freemanhealth.com/location/ch-bentlage-building"
"https://freemanhealth.com"," Four States Foot Clinic ","2024 South Maiden LaneSuite 201","Joplin","Missouri","64804","US","<MISSING>","417-782-7500","Internal Medicine","<MISSING>","<MISSING>","<MISSING>","https://freemanhealth.com/location/four-states-foot-clinic"
"https://freemanhealth.com"," Freeman Academic Internal Medicine ","3202 McIntosh CircleSuite LL03","Joplin","Missouri","64804","US","<MISSING>","417-347-1095","Internal Medicine","<MISSING>","<MISSING>","Monday: 8:00 am - 5:00 pmTuesday: 8:00 am - 5:00 pmWednesday: 8:00 am - 5:00 pmThursday: 8:00 am - 5:00 pmFriday: 8:00 am - 12:00 pm","https://freemanhealth.com/location/freeman-academic-internal-medicine"
"https://freemanhealth.com"," Freeman Learning Center ","3606 S. Indiana Ave.","Joplin","Missouri","64804","US","<MISSING>","417-347-1610","Internal Medicine","<MISSING>","<MISSING>","<MISSING>","https://freemanhealth.com/location/freeman-learning-center"
"https://freemanhealth.com"," Freeman Medical Plaza ","702 East 34th StreetSuite 101","Joplin","Missouri","64804","US","<MISSING>","417-347-1111","Internal Medicine","<MISSING>","<MISSING>","<MISSING>","https://freemanhealth.com/node/556"
"https://freemanhealth.com"," Freeman Midwest Internal Medicine ","608 Willard Street","Frontenac","Kansas","66763","US","<MISSING>","620-231-8849","Internal Medicine","<MISSING>","<MISSING>","Monday: 8:00 am - 5:00 pmTuesday: 8:00 am - 5:00 pmWednesday: 8:00 am - 5:00 pmThursday: 8:00 am - 5:00 pmFriday: 8:00 am - 12:00 pm","https://freemanhealth.com/location/freeman-midwest-internal-medicine"
"https://freemanhealth.com"," Freeman Neosho Hospital ","113 West Hickory Street","Neosho","Missouri","64850","US","<MISSING>","417-451-1234","Internal Medicine","<MISSING>","<MISSING>","<MISSING>","https://freemanhealth.com/location/freeman-neosho-hospital"
"https://freemanhealth.com"," Freeman Primary Care ","1636 S. Madison St.","Webb","City,","Missouri","CA","<MISSING>","417-347-4967","Internal Medicine","<MISSING>","<MISSING>","Monday: 8:00 am - 5:00 pmTuesday: 8:00 am - 5:00 pmWednesday: 8:00 am - 5:00 pmThursday: 8:00 am - 5:00 pmFriday: 8:00 am - 12:00 pm","https://freemanhealth.com/location/freeman-primary-care"
"https://freemanhealth.com"," Freeman Southwest Internal Medicine ","3202 McIntosh CircleSuite 201","Joplin","Missouri","64804","US","<MISSING>","417-347-1111","Internal Medicine","<MISSING>","<MISSING>","Monday: 8:30 am – 4:30 pmTuesday: 8:30 am – 4:30 pmWednesday: 8:30 am – 4:30 pmThursday: 8:30 am – 4:30 pmFriday: 8:30 am – 12:00 pm","https://freemanhealth.com/location/freeman-southwest-internal-medicine"
"https://freemanhealth.com"," Labette Health Physicians Group ","510 Peter Pan Road","Independence",",","Kansas","CA","<MISSING>","620-577-7280","Internal Medicine","<MISSING>","<MISSING>","<MISSING>","https://freemanhealth.com/location/labette-health-physicians-group"
"https://freemanhealth.com"," Medical One Specialty Clinic ","29 North West 1st Lane","Lamar","Missouri","64759","US","<MISSING>","417-681-5284","Internal Medicine","<MISSING>","<MISSING>","<MISSING>","https://freemanhealth.com/location/medical-one-specialty-clinic"
"https://freemanhealth.com"," Melvin D. Karges, MD ","702 East 34th StreetSuite 100","Joplin","Missouri","64804","US","<MISSING>","417-782-1700","Internal Medicine","<MISSING>","<MISSING>","<MISSING>","https://freemanhealth.com/location/melvin-d-karges-md"
"https://freemanhealth.com"," O'Keefe & Kessler: Kessler William MD ","3020 St Johns BoulevardSuite C1","Joplin","Missouri","64804","US","<MISSING>","417-782-6767","Internal Medicine","<MISSING>","<MISSING>","<MISSING>","https://freemanhealth.com/location/okeefe-kessler-kessler-william-md"
"https://freemanhealth.com"," Phelan Dermatology & Aesthetics ","431 East 32nd StreetSuite B","Joplin","Missouri","64804","US","<MISSING>","417-622-0293","Internal Medicine","<MISSING>","<MISSING>","<MISSING>","https://freemanhealth.com/location/phelan-dermatology-aesthetics"
"https://freemanhealth.com"," Ramesh Shah, MD ","1703 West 30th StreetSuite B","Joplin","Missouri","64804","US","<MISSING>","417-781-2616","Internal Medicine","<MISSING>","<MISSING>","<MISSING>","https://freemanhealth.com/location/ramesh-shah-md"
"https://freemanhealth.com"," Randy Bowles, MD ","1002 McIntosh CircleSuite 1","Joplin","Missouri","64804","US","<MISSING>","417-781-0224","Internal Medicine","<MISSING>","<MISSING>","<MISSING>","https://freemanhealth.com/location/randy-bowles-md"
"https://freemanhealth.com"," Samuel Carter, MD ","2024 South Maiden LaneSuite 203","Joplin","Missouri","64804","US","<MISSING>","417-659-4661","Internal Medicine","<MISSING>","<MISSING>","<MISSING>","https://freemanhealth.com/location/samuel-carter-md"
"https://freemanhealth.com"," Shoal Creek Foot & Ankle Center ","1801 West 32nd StreetBuilding C, Suite 102","Joplin","Missouri","64804","US","<MISSING>","417-659-4661","Internal Medicine","<MISSING>","<MISSING>","<MISSING>","https://freemanhealth.com/location/shoal-creek-foot-ankle-center"
"https://freemanhealth.com"," Tracy Godfrey, MD ","3126 South JacksonSuite 101","Joplin","Missouri","64804","US","<MISSING>","417-781-0408","Internal Medicine","<MISSING>","<MISSING>","<MISSING>","https://freemanhealth.com/location/tracy-godfrey-md"
"https://freemanhealth.com"," Valarie Ikerd, DPM ","1617 West 26th StreetSuite A","Joplin","Missouri","64804","US","<MISSING>","417-659-9395","Internal Medicine","<MISSING>","<MISSING>","<MISSING>","https://freemanhealth.com/location/valarie-ikerd-dpm"
"https://freemanhealth.com"," Walter Dandridge, MD ","3020 St. Johns BoulevardSuite F","Joplin","Missouri","64804","US","<MISSING>","417-781-4404","Internal Medicine","<MISSING>","<MISSING>","<MISSING>","https://freemanhealth.com/location/walter-dandridge-md"
"https://freemanhealth.com"," Webb City Neighborhood Care ","1636 South Madison Street","Webb","City,","Missouri","CA","<MISSING>","417-347-2300","Internal Medicine","<MISSING>","<MISSING>","<MISSING>","https://freemanhealth.com/location/webb-city-neighborhood-care"
"https://freemanhealth.com"," C.H. Bentlage Building ","3202 McIntosh Circle","Joplin","Missouri","64804","US","<MISSING>","417-347-1111","Laboratory Services","<MISSING>","<MISSING>","<MISSING>","https://freemanhealth.com/location/ch-bentlage-building"
"https://freemanhealth.com"," Freeman Learning Center ","3606 S. Indiana Ave.","Joplin","Missouri","64804","US","<MISSING>","417-347-1610","Laboratory Services","<MISSING>","<MISSING>","<MISSING>","https://freemanhealth.com/location/freeman-learning-center"
"https://freemanhealth.com"," Freeman Neosho Hospital ","113 West Hickory Street","Neosho","Missouri","64850","US","<MISSING>","417-451-1234","Laboratory Services","<MISSING>","<MISSING>","<MISSING>","https://freemanhealth.com/location/freeman-neosho-hospital"
"https://freemanhealth.com"," Freeman Seneca Family Medicine ","1606 Olive Street","Seneca","Missouri","64865","US","<MISSING>","417-776-5900","Laboratory Services","<MISSING>","<MISSING>","Monday: 8:00 am - 4:00 pmTuesday: 8:00 am - 4:00 pmWednesday: 8:00 am - 4:00 pmThursday: 8:00 am - 4:00 pmFriday: 8:00 am - 12:00 pm","https://freemanhealth.com/location/freeman-seneca-family-medicine"
"https://freemanhealth.com"," Lamar Neighborhood Care ","307 West 11th Street","Lamar","Missouri","64759","US","<MISSING>","417-682-3300","Laboratory Services","<MISSING>","<MISSING>","<MISSING>","https://freemanhealth.com/location/lamar-neighborhood-care"
"https://freemanhealth.com"," Freeman Learning Center ","3606 S. Indiana Ave.","Joplin","Missouri","64804","US","<MISSING>","417-347-1610","Maternity Services","<MISSING>","<MISSING>","<MISSING>","https://freemanhealth.com/location/freeman-learning-center"
"https://freemanhealth.com"," Freeman Neonatal Intensive Care Unit ","1102 West 32nd Street","Joplin","Missouri","64804","US","<MISSING>","417-347-1111","Maternity Services","<MISSING>","<MISSING>","<MISSING>","https://freemanhealth.com/location/freeman-neonatal-intensive-care-unit"
"https://freemanhealth.com"," Freeman Perinatology Center ","1532 West 32nd StreetSuite 302","Joplin","Missouri","64804","US","<MISSING>","417-347-8590","Maternity Services","<MISSING>","<MISSING>","Monday: 8:00 am - 4:30 pmTuesday: 8:00 am - 4:30 pmWednesday: 8:00 am - 4:30 pmThursday: 8:00 am - 4:30 pmFriday: 8:00 am - 12:00 pm","https://freemanhealth.com/location/freeman-perinatology-center"
"https://freemanhealth.com"," Freeman Learning Center ","3606 S. Indiana Ave.","Joplin","Missouri","64804","US","<MISSING>","417-347-1610","Men's Health","<MISSING>","<MISSING>","<MISSING>","https://freemanhealth.com/location/freeman-learning-center"
"https://freemanhealth.com"," Freeman Neosho Hospital ","113 West Hickory Street","Neosho","Missouri","64850","US","<MISSING>","417-451-1234","Men's Health","<MISSING>","<MISSING>","<MISSING>","https://freemanhealth.com/location/freeman-neosho-hospital"
"https://freemanhealth.com"," Freeman Kidney Center ","932 East 34th StreetSuite 2","Joplin","Missouri","64804","US","<MISSING>","417-347-8570","Nephrology (Kidney Care)","<MISSING>","<MISSING>","Monday: 8:00 am - 5:00 pmTuesday: 8:00 am - 5:00 pmWednesday: 8:00 am - 5:00 pmThursday: 8:00 am - 5:00 pmFriday: 8:00 am - 12:00 pm","https://freemanhealth.com/location/freeman-kidney-center"
"https://freemanhealth.com"," Freeman Learning Center ","3606 S. Indiana Ave.","Joplin","Missouri","64804","US","<MISSING>","417-347-1610","Nephrology (Kidney Care)","<MISSING>","<MISSING>","<MISSING>","https://freemanhealth.com/location/freeman-learning-center"
"https://freemanhealth.com"," Joplin Nephrology Consultants ","522 West 32nd StreetSuite 1","Joplin","Missouri","64804","US","<MISSING>","417-782-5000","Nephrology (Kidney Care)","<MISSING>","<MISSING>","<MISSING>","https://freemanhealth.com/location/joplin-nephrology-consultants"
"https://freemanhealth.com"," Webb City Neighborhood Care ","1636 South Madison Street","Webb","City,","Missouri","CA","<MISSING>","417-347-2300","Nephrology (Kidney Care)","<MISSING>","<MISSING>","<MISSING>","https://freemanhealth.com/location/webb-city-neighborhood-care"
"https://freemanhealth.com"," Freeman Learning Center ","3606 S. Indiana Ave.","Joplin","Missouri","64804","US","<MISSING>","417-347-1610","Neurology and Neurosurgery","<MISSING>","<MISSING>","<MISSING>","https://freemanhealth.com/location/freeman-learning-center"
"https://freemanhealth.com"," Freeman Neurology ","1905 West 32nd StreetThousand Oaks Building, Suite 403","Joplin","Missouri","64804","US","<MISSING>","417-347-7300","Neurology and Neurosurgery","<MISSING>","<MISSING>","Monday: 8:00 am - 5:00 pmTuesday: 8:00 am - 5:00 pmWednesday: 8:00 am - 5:00 pmThursday: 8:00 am - 5:00 pmFriday: 8:00 am - 5:00 pm","https://freemanhealth.com/location/freeman-neurology"
"https://freemanhealth.com"," Freeman NeuroSpine ","1905 West 32nd StreetThousand Oaks Medical Building, Suite 403","Joplin","Missouri","64804","US","<MISSING>","417-347-7200","Neurology and Neurosurgery","<MISSING>","<MISSING>","Monday: 8:00 am - 5:00 pmTuesday: 8:00 am - 5:00 pmWednesday: 8:00 am - 5:00 pmThursday: 8:00 am - 5:00 pmFriday: 8:00 am - 5:00 pm","https://freemanhealth.com/location/freeman-neurospine"
"https://freemanhealth.com"," Thousand Oaks Building ","1905 West 32nd Street","Joplin","Missouri","64804","US","<MISSING>","417-782-5500","Neurology and Neurosurgery","<MISSING>","<MISSING>","<MISSING>","https://freemanhealth.com/location/thousand-oaks-building"
"https://freemanhealth.com"," Freeman Learning Center ","3606 S. Indiana Ave.","Joplin","Missouri","64804","US","<MISSING>","417-347-1610","Occupational Medicine","<MISSING>","<MISSING>","<MISSING>","https://freemanhealth.com/location/freeman-learning-center"
"https://freemanhealth.com"," Freeman Neosho Hospital ","113 West Hickory Street","Neosho","Missouri","64850","US","<MISSING>","417-451-1234","Occupational Medicine","<MISSING>","<MISSING>","<MISSING>","https://freemanhealth.com/location/freeman-neosho-hospital"
"https://freemanhealth.com"," Freeman OccuMed ","3201 McClelland Boulevard","Joplin","Missouri","64804","US","<MISSING>","417-347-6625","Occupational Medicine","<MISSING>","<MISSING>","Monday: 8:00 am - 5:00 pmTuesday: 8:00 am - 5:00 pmWednesday: 8:00 am - 5:00 pmThursday: 8:00 am - 5:00 pmFriday: 8:00 am - 12:00 pm","https://freemanhealth.com/location/freeman-occumed"
"https://freemanhealth.com"," Freeman Learning Center ","3606 S. Indiana Ave.","Joplin","Missouri","64804","US","<MISSING>","417-347-1610","Occupational Therapy","<MISSING>","<MISSING>","<MISSING>","https://freemanhealth.com/location/freeman-learning-center"
"https://freemanhealth.com"," Freeman Learning Center ","3606 S. Indiana Ave.","Joplin","Missouri","64804","US","<MISSING>","417-347-1610","Orthopaedics and Sports Medicine","<MISSING>","<MISSING>","<MISSING>","https://freemanhealth.com/location/freeman-learning-center"
"https://freemanhealth.com"," Freeman Neosho Physician Group ","336 South Jefferson","Neosho","Missouri","64850","US","<MISSING>","417-455-4200","Orthopaedics and Sports Medicine","<MISSING>","<MISSING>","Monday: 8:00 am - 5:00 pmTuesday: 8:00 am - 5:00 pmWednesday: 8:00 am - 5:00 pmThursday: 8:00 am - 5:00 pmFriday: 8:00 am - 5:00 pm","https://freemanhealth.com/location/freeman-neosho-physician-group"
"https://freemanhealth.com"," Freeman Orthopaedics & Sports Medicine ","3105 McClelland Boulevard","Joplin","Missouri","64804","US","<MISSING>","417-347-5400","Orthopaedics and Sports Medicine","<MISSING>","<MISSING>","Monday: 8:30 am - 5:00 pmTuesday: 8:30 am - 5:00 pmWednesday: 8:30 am - 5:00 pmThursday: 8:30 am - 5:00 pmFriday: 8:30 am - 12:00 pm","https://freemanhealth.com/location/freeman-orthopaedics-sports-medicine"
"https://freemanhealth.com"," Freeman Orthopaedics & Sports Medicine - Fort Scott ","401 Woodland Hills Blvd","Fort","Scott,","Kansas","CA","<MISSING>","620-223-8064","Orthopaedics and Sports Medicine","<MISSING>","<MISSING>","<MISSING>","https://freemanhealth.com/node/621"
"https://freemanhealth.com"," Freeman Orthopaedics & Sports Medicine - Pittsburg ","100 N. Pine","Pittsburg","Kansas","66762","US","<MISSING>","620-231-3750","Orthopaedics and Sports Medicine","<MISSING>","<MISSING>","Monday: 8:00 am - 4:45 pmTuesday: 8:00 am - 4:45 pmWednesday: 8:00 am - 4:45 pmThursday: 8:00 am - 4:45 pmFriday: 8:00 am - 2:45 pm","https://freemanhealth.com/location/freeman-orthopaedics-sports-medicine-pittsburg"
"https://freemanhealth.com"," Freeman Physical Rehabilitation Unit ","932 East 34th Street3rd Floor","Joplin","Missouri","64804","US","<MISSING>","417-347-1234","Orthopaedics and Sports Medicine","<MISSING>","<MISSING>","<MISSING>","https://freemanhealth.com/location/freeman-physical-rehabilitation-unit"
"https://freemanhealth.com"," Freeman Rehabilitation & Sports Center ","2206 East 32nd Street","Joplin","Missouri","64804","US","<MISSING>","417-347-3737","Orthopaedics and Sports Medicine","<MISSING>","<MISSING>","<MISSING>","https://freemanhealth.com/location/freeman-rehabilitation-sports-center"
"https://freemanhealth.com"," Freeman Institute for Pain Management  ","1002 McIntosh CircleSuite 6","Joplin","Missouri","64804","US","<MISSING>","417-347-8055","Pain Management","<MISSING>","<MISSING>","Monday: 7:30 am - 4:30 pmTuesday: 7:30 am - 4:30 pmWednesday: 7:30 am - 4:30 pmThursday: 7:30 am - 4:30 pmFriday: 7:30 am - 12:00 pm","https://freemanhealth.com/location/freeman-institute-for-pain-management"
"https://freemanhealth.com"," Freeman Learning Center ","3606 S. Indiana Ave.","Joplin","Missouri","64804","US","<MISSING>","417-347-1610","Pain Management","<MISSING>","<MISSING>","<MISSING>","https://freemanhealth.com/location/freeman-learning-center"
"https://freemanhealth.com"," Freeman Pain Management Center ","3103 McClelland Boulevard","Joplin","Missouri","64804","US","<MISSING>","417-347-8355","Pain Management","<MISSING>","<MISSING>","Monday: 8:00 am - 5:00 pmTuesday: 8:00 am - 5:00 pmWednesday: 8:00 am - 5:00 pmThursday: 8:00 am - 5:00 pmFriday: 8:00 am - 12:00 pm","https://freemanhealth.com/location/freeman-pain-management-center"
"https://freemanhealth.com"," Freeman Learning Center ","3606 S. Indiana Ave.","Joplin","Missouri","64804","US","<MISSING>","417-347-1610","Palliative Care","<MISSING>","<MISSING>","<MISSING>","https://freemanhealth.com/location/freeman-learning-center"
"https://freemanhealth.com"," Freeman Palliative Care ","1102 West 32nd Street","Joplin","Missouri","64804","US","<MISSING>","417-347-4094","Palliative Care","<MISSING>","<MISSING>","<MISSING>","https://freemanhealth.com/location/freeman-palliative-care"
"https://freemanhealth.com"," Freeman Children's Clinic ","1030 McIntosh CircleSuite 1","Joplin","Missouri","64804","US","<MISSING>","417-347-8750","Pediatrics","<MISSING>","<MISSING>","Monday: 8:00 am - 5:00 pmTuesday: 8:30 am - 5:00 pmWednesday: 8:00 am - 5:00 pmThursday: 8:00 am - 5:00 pmFriday: 8:00 am - 4:00 pm","https://freemanhealth.com/location/freeman-childrens-clinic"
"https://freemanhealth.com"," Freeman Learning Center ","3606 S. Indiana Ave.","Joplin","Missouri","64804","US","<MISSING>","417-347-1610","Pediatrics","<MISSING>","<MISSING>","<MISSING>","https://freemanhealth.com/location/freeman-learning-center"
"https://freemanhealth.com"," Freeman Neosho Hospital ","113 West Hickory Street","Neosho","Missouri","64850","US","<MISSING>","417-451-1234","Pediatrics","<MISSING>","<MISSING>","<MISSING>","https://freemanhealth.com/location/freeman-neosho-hospital"
"https://freemanhealth.com"," Freeman Pediatric Care ","3333 McIntosh CircleSuite 1","Joplin","Missouri","64804","US","<MISSING>","417-347-5437","Pediatrics","<MISSING>","<MISSING>","Monday: 8:00 am - 5:00 pmTuesday: 8:00 am - 5:00 pmWednesday: 8:00 am - 5:00 pmThursday: 8:00 am - 5:00 pmFriday: 8:00 am - 4:30 pm","https://freemanhealth.com/location/freeman-pediatric-care"
"https://freemanhealth.com"," Freeman Pediatric Partners ","1030 McIntosh CircleSuite 2","Joplin","Missouri","64804","US","<MISSING>","417-347-2229","Pediatrics","<MISSING>","<MISSING>","Monday: 8:00 am - 4:30 pmTuesday: 8:00 am - 4:30 pmWednesday: 8:00 am - 4:30 pmThursday: 8:00 am - 5:00 pmFriday: 8:00 am - 2:30 pm","https://freemanhealth.com/location/freeman-pediatric-partners"
"https://freemanhealth.com"," Freeman Seneca Family Medicine ","1606 Olive Street","Seneca","Missouri","64865","US","<MISSING>","417-776-5900","Pediatrics","<MISSING>","<MISSING>","Monday: 8:00 am - 4:00 pmTuesday: 8:00 am - 4:00 pmWednesday: 8:00 am - 4:00 pmThursday: 8:00 am - 4:00 pmFriday: 8:00 am - 12:00 pm","https://freemanhealth.com/location/freeman-seneca-family-medicine"
"https://freemanhealth.com"," Johnson and Grote Pediatrics, Inc. ","702 East 34th StreetSuite 203","Joplin","Missouri","64804","US","<MISSING>","417-623-4077","Pediatrics","<MISSING>","<MISSING>","<MISSING>","https://freemanhealth.com/location/johnson-and-grote-pediatrics-inc"
"https://freemanhealth.com"," Joplin Neighborhood Care ","3333 McIntosh Circle Drive","Joplin","Missouri","64804","US","<MISSING>","<MISSING>","Pediatrics","<MISSING>","<MISSING>","<MISSING>","https://freemanhealth.com/location/joplin-neighborhood-care"
"https://freemanhealth.com"," Pediatric Associates of Southwest Missouri ","2203 East 32nd Street","Joplin","Missouri","64804","US","<MISSING>","417-782-5522","Pediatrics","<MISSING>","<MISSING>","<MISSING>","https://freemanhealth.com/location/pediatric-associates-of-southwest-missouri"
"https://freemanhealth.com"," Freeman Learning Center ","3606 S. Indiana Ave.","Joplin","Missouri","64804","US","<MISSING>","417-347-1610","Pharmacy Services","<MISSING>","<MISSING>","<MISSING>","https://freemanhealth.com/location/freeman-learning-center"
"https://freemanhealth.com"," Freeman Neosho Hospital ","113 West Hickory Street","Neosho","Missouri","64850","US","<MISSING>","417-451-1234","Pharmacy Services","<MISSING>","<MISSING>","<MISSING>","https://freemanhealth.com/location/freeman-neosho-hospital"
"https://freemanhealth.com"," Freeman Learning Center ","3606 S. Indiana Ave.","Joplin","Missouri","64804","US","<MISSING>","417-347-1610","Physical Rehabilitation","<MISSING>","<MISSING>","<MISSING>","https://freemanhealth.com/location/freeman-learning-center"
"https://freemanhealth.com"," Freeman Learning Center ","3606 S. Indiana Ave.","Joplin","Missouri","64804","US","<MISSING>","417-347-1610","Psychiatry","<MISSING>","<MISSING>","<MISSING>","https://freemanhealth.com/location/freeman-learning-center"
"https://freemanhealth.com"," Ozark Center - ACT ","530 East 34th StreetSuite 200","Joplin","Missouri","64804","US","<MISSING>","417-347-7065","Psychiatry","<MISSING>","<MISSING>","<MISSING>","https://freemanhealth.com/location/ozark-center-act"
"https://freemanhealth.com"," Ozark Center - ACT-TAY ","1905 W. 32nd StreetSuite 408","Joplin","Missouri","64804","US","<MISSING>","417-347-7450","Psychiatry","<MISSING>","<MISSING>","<MISSING>","https://freemanhealth.com/location/ozark-center-act-tay"
"https://freemanhealth.com"," Ozark Center - Carl Junction Clinic Children's Services ","106 South Main Street","Carl","Junction,","Missouri","CA","<MISSING>","417-347-7999","Psychiatry","<MISSING>","<MISSING>","<MISSING>","https://freemanhealth.com/location/ozark-center-carl-junction-clinic-childrens-services"
"https://freemanhealth.com"," Ozark Center - CCP ","530 East 34th Street","Joplin","Missouri","64804","US","<MISSING>","417-347-7630","Psychiatry","<MISSING>","<MISSING>","<MISSING>","https://freemanhealth.com/location/ozark-center-ccp"
"https://freemanhealth.com"," Ozark Center - Hope Spring ","3901 East 32nd Street","Joplin","Missouri","64804","US","<MISSING>","417-347-7567","Psychiatry","<MISSING>","<MISSING>","<MISSING>","https://freemanhealth.com/location/ozark-center-hope-spring"
"https://freemanhealth.com"," Ozark Center - Neosho Adult and Children's Services ","204 North Lincoln Street","Neosho","Missouri","64850","US","<MISSING>","417-451-4565","Psychiatry","<MISSING>","<MISSING>","<MISSING>","https://freemanhealth.com/location/ozark-center-neosho-adult-and-childrens-services"
"https://freemanhealth.com"," Ozark Center Urgent Behavioral Solutions ","3230 Wisconsin Ave, Suite A, Joplin, MOSuite A","Joplin","Missouri","64804","US","<MISSING>","417-347-7800","Psychiatry","<MISSING>","<MISSING>","Monday: 11:00 am – 9:00 pmTuesday: 11:00 am – 9:00 pmWednesday: 11:00 am – 9:00 pmThursday: 11:00 am – 9:00 pmFriday: 11:00 am – 9:00 pmSaturday: 1:00 pm – 9:00 pmSunday: 1:00 pm – 9:00 pm","https://freemanhealth.com/location/ozark-center-urgent-behavioral-solutions"
"https://freemanhealth.com"," Freeman Learning Center ","3606 S. Indiana Ave.","Joplin","Missouri","64804","US","<MISSING>","417-347-1610","Psychology","<MISSING>","<MISSING>","<MISSING>","https://freemanhealth.com/location/freeman-learning-center"
"https://freemanhealth.com"," Ozark Center - ACT ","530 East 34th StreetSuite 200","Joplin","Missouri","64804","US","<MISSING>","417-347-7065","Psychology","<MISSING>","<MISSING>","<MISSING>","https://freemanhealth.com/location/ozark-center-act"
"https://freemanhealth.com"," Ozark Center - ACT-TAY ","1905 W. 32nd StreetSuite 408","Joplin","Missouri","64804","US","<MISSING>","417-347-7450","Psychology","<MISSING>","<MISSING>","<MISSING>","https://freemanhealth.com/location/ozark-center-act-tay"
"https://freemanhealth.com"," Ozark Center - Carl Junction Clinic Children's Services ","106 South Main Street","Carl","Junction,","Missouri","CA","<MISSING>","417-347-7999","Psychology","<MISSING>","<MISSING>","<MISSING>","https://freemanhealth.com/location/ozark-center-carl-junction-clinic-childrens-services"
"https://freemanhealth.com"," Ozark Center - CCP ","530 East 34th Street","Joplin","Missouri","64804","US","<MISSING>","417-347-7630","Psychology","<MISSING>","<MISSING>","<MISSING>","https://freemanhealth.com/location/ozark-center-ccp"
"https://freemanhealth.com"," Ozark Center - Hope Spring ","3901 East 32nd Street","Joplin","Missouri","64804","US","<MISSING>","417-347-7567","Psychology","<MISSING>","<MISSING>","<MISSING>","https://freemanhealth.com/location/ozark-center-hope-spring"
"https://freemanhealth.com"," Ozark Center - Neosho Adult and Children's Services ","204 North Lincoln Street","Neosho","Missouri","64850","US","<MISSING>","417-451-4565","Psychology","<MISSING>","<MISSING>","<MISSING>","https://freemanhealth.com/location/ozark-center-neosho-adult-and-childrens-services"
"https://freemanhealth.com"," Ozark Center Urgent Behavioral Solutions ","3230 Wisconsin Ave, Suite A, Joplin, MOSuite A","Joplin","Missouri","64804","US","<MISSING>","417-347-7800","Psychology","<MISSING>","<MISSING>","Monday: 11:00 am – 9:00 pmTuesday: 11:00 am – 9:00 pmWednesday: 11:00 am – 9:00 pmThursday: 11:00 am – 9:00 pmFriday: 11:00 am – 9:00 pmSaturday: 1:00 pm – 9:00 pmSunday: 1:00 pm – 9:00 pm","https://freemanhealth.com/location/ozark-center-urgent-behavioral-solutions"
"https://freemanhealth.com"," Freeman Learning Center ","3606 S. Indiana Ave.","Joplin","Missouri","64804","US","<MISSING>","417-347-1610","Pulmonology ","<MISSING>","<MISSING>","<MISSING>","https://freemanhealth.com/location/freeman-learning-center"
"https://freemanhealth.com"," Freeman Lung Institute ","1002 McIntosh CircleSuite 4","Joplin","Missouri","64804","US","<MISSING>","417-347-8315","Pulmonology ","<MISSING>","<MISSING>","Monday: 8:00 am - 5:00 pmTuesday: 8:00 am - 5:00 pmWednesday: 8:00 am - 5:00 pmThursday: 8:00 am - 5:00 pmFriday: 8:00 am - 12:00 pm","https://freemanhealth.com/location/freeman-lung-institute"
"https://freemanhealth.com"," C.H. Bentlage Building ","3202 McIntosh Circle","Joplin","Missouri","64804","US","<MISSING>","417-347-1111","Radiology","<MISSING>","<MISSING>","<MISSING>","https://freemanhealth.com/location/ch-bentlage-building"
"https://freemanhealth.com"," Freeman Learning Center ","3606 S. Indiana Ave.","Joplin","Missouri","64804","US","<MISSING>","417-347-1610","Radiology","<MISSING>","<MISSING>","<MISSING>","https://freemanhealth.com/location/freeman-learning-center"
"https://freemanhealth.com"," Freeman Radiology ","1102 West 32nd Street","Joplin","Missouri","64804","US","<MISSING>","417-347-6611","Radiology","<MISSING>","<MISSING>","<MISSING>","https://freemanhealth.com/location/freeman-radiology"
"https://freemanhealth.com"," Freeman Learning Center ","3606 S. Indiana Ave.","Joplin","Missouri","64804","US","<MISSING>","417-347-1610","Reconstructive and Cosmetic Plastic Surgery","<MISSING>","<MISSING>","<MISSING>","https://freemanhealth.com/location/freeman-learning-center"
"https://freemanhealth.com"," Freeman Center for Geriatric Medicine ","931 East 32nd Street","Joplin","Missouri","64804","US","<MISSING>","417-347-4374","Rheumatology","<MISSING>","<MISSING>","Monday: 8:00 am - 5:00 pmTuesday: 8:00 am - 5:00 pmWednesday: 8:00 am - 5:00 pmThursday: 8:00 am - 5:00 pmFriday: 8:00 am - 5:00 pm","https://freemanhealth.com/location/freeman-center-for-geriatric-medicine"
"https://freemanhealth.com"," Freeman Learning Center ","3606 S. Indiana Ave.","Joplin","Missouri","64804","US","<MISSING>","417-347-1610","Rheumatology","<MISSING>","<MISSING>","<MISSING>","https://freemanhealth.com/location/freeman-learning-center"
"https://freemanhealth.com"," Washington University School of Medicine - Gregory Ewald, MD ","660 South Euclid AvenueBox 8086","St.","Louis,","Missouri","CA","<MISSING>","314-454-7687","Rheumatology","<MISSING>","<MISSING>","<MISSING>","https://freemanhealth.com/location/washington-university-school-of-medicine-gregory-ewald-md"
"https://freemanhealth.com"," Freeman Learning Center ","3606 S. Indiana Ave.","Joplin","Missouri","64804","US","<MISSING>","417-347-1610","Senior Services","<MISSING>","<MISSING>","<MISSING>","https://freemanhealth.com/location/freeman-learning-center"
"https://freemanhealth.com"," C.H. Bentlage Building ","3202 McIntosh Circle","Joplin","Missouri","64804","US","<MISSING>","417-347-1111","Sleep Medicine","<MISSING>","<MISSING>","<MISSING>","https://freemanhealth.com/location/ch-bentlage-building"
"https://freemanhealth.com"," Freeman Learning Center ","3606 S. Indiana Ave.","Joplin","Missouri","64804","US","<MISSING>","417-347-1610","Sleep Medicine","<MISSING>","<MISSING>","<MISSING>","https://freemanhealth.com/location/freeman-learning-center"
"https://freemanhealth.com"," Freeman Sleep Medicine ","3202 McIntosh CircleSuite 102","Joplin","Missouri","64804","US","<MISSING>","417-347-8688","Sleep Medicine","<MISSING>","<MISSING>","Monday: 8:00 am - 5:00 pmTuesday: 8:00 am - 5:00 pmWednesday: 8:00 am - 5:00 pmThursday: 8:00 am - 5:00 pmFriday: 8:00 am - 12:00 pm","https://freemanhealth.com/location/freeman-sleep-medicine"
"https://freemanhealth.com"," Freeman Learning Center ","3606 S. Indiana Ave.","Joplin","Missouri","64804","US","<MISSING>","417-347-1610","Social Work","<MISSING>","<MISSING>","<MISSING>","https://freemanhealth.com/location/freeman-learning-center"
"https://freemanhealth.com"," Ozark Center - ACT ","530 East 34th StreetSuite 200","Joplin","Missouri","64804","US","<MISSING>","417-347-7065","Social Work","<MISSING>","<MISSING>","<MISSING>","https://freemanhealth.com/location/ozark-center-act"
"https://freemanhealth.com"," Ozark Center - Hope Spring ","3901 East 32nd Street","Joplin","Missouri","64804","US","<MISSING>","417-347-7567","Social Work","<MISSING>","<MISSING>","<MISSING>","https://freemanhealth.com/location/ozark-center-hope-spring"
"https://freemanhealth.com"," Turnaround Ranch ","1949 Snowberry Lane","Joplin","Missouri","64804","US","<MISSING>","417-347-7860","Social Work","<MISSING>","<MISSING>","<MISSING>","https://freemanhealth.com/location/turnaround-ranch"
"https://freemanhealth.com"," Freeman Learning Center ","3606 S. Indiana Ave.","Joplin","Missouri","64804","US","<MISSING>","417-347-1610","Speech-Language Pathology","<MISSING>","<MISSING>","<MISSING>","https://freemanhealth.com/location/freeman-learning-center"
"https://freemanhealth.com"," Freeman Learning Center ","3606 S. Indiana Ave.","Joplin","Missouri","64804","US","<MISSING>","417-347-1610","Stroke Care","<MISSING>","<MISSING>","<MISSING>","https://freemanhealth.com/location/freeman-learning-center"
"https://freemanhealth.com"," Freeman Learning Center ","3606 S. Indiana Ave.","Joplin","Missouri","64804","US","<MISSING>","417-347-1610","Substance Use and Addiction","<MISSING>","<MISSING>","<MISSING>","https://freemanhealth.com/location/freeman-learning-center"
"https://freemanhealth.com"," Ozark Center - Lamar Clinic ","307 West 11th Street","Lamar","Missouri","64759","US","<MISSING>","417-347-8010","Substance Use and Addiction","<MISSING>","<MISSING>","<MISSING>","https://freemanhealth.com/location/ozark-center-lamar-clinic"
"https://freemanhealth.com"," Ozark Center - New Directions Joplin ","305 Virginia Avenue","Joplin","Missouri","64801","US","<MISSING>","417-347-7730","Substance Use and Addiction","<MISSING>","<MISSING>","<MISSING>","https://freemanhealth.com/location/ozark-center-new-directions-joplin"
"https://freemanhealth.com"," Ozark Center - New Directions Neosho ","214 North Washington Street","Neosho","Missouri","64850","US","<MISSING>","417-347-7840","Substance Use and Addiction","<MISSING>","<MISSING>","<MISSING>","https://freemanhealth.com/location/ozark-center-new-directions-neosho"
"https://freemanhealth.com"," Ozark Center - New Directions Residential and Detox ","3010 McClelland Boulevard","Joplin","Missouri","64804","US","<MISSING>","417-347-7700","Substance Use and Addiction","<MISSING>","<MISSING>","<MISSING>","https://freemanhealth.com/location/ozark-center-new-directions-residential-and-detox"
"https://freemanhealth.com"," Freeman Learning Center ","3606 S. Indiana Ave.","Joplin","Missouri","64804","US","<MISSING>","417-347-1610","Urgent Care","<MISSING>","<MISSING>","<MISSING>","https://freemanhealth.com/location/freeman-learning-center"
"https://freemanhealth.com"," Freeman Urgent Care - Joplin ","1130 East 32nd Street","Joplin","Missouri","64804","US","<MISSING>","417-347-2273","Urgent Care","<MISSING>","<MISSING>","Sunday: 10:00 am - 6:00 pmMonday: 8:00 am - 8:00 pmTuesday: 8:00 am - 8:00 pmWednesday: 8:00 am - 8:00 pmThursday: 8:00 am - 8:00 pmFriday: 8:00 am - 8:00 pmSaturday: 10:00 am - 6:00 pm","https://freemanhealth.com/location/freeman-urgent-care-joplin"
"https://freemanhealth.com"," Freeman Urgent Care - Webb City ","1636 South Madison Street","Webb","City,","Missouri","CA","<MISSING>","417-347-2273","Urgent Care","<MISSING>","<MISSING>","Sunday: 10:00 am - 6:00 pmMonday: 8:00 am - 8:00 pmTuesday: 8:00 am - 8:00 pmWednesday: 8:00 am - 8:00 pmThursday: 8:00 am - 8:00 pmFriday: 8:00 am - 8:00 pmSaturday: 10:00 am - 6:00 pm","https://freemanhealth.com/location/freeman-urgent-care-webb-city"
"https://freemanhealth.com"," Nevada Medical Clinic ","900 South Adams","Nevada","Missouri","64772","US","<MISSING>","417-667-6015","Urgent Care","<MISSING>","<MISSING>","<MISSING>","https://freemanhealth.com/location/nevada-medical-clinic"
"https://freemanhealth.com"," Freeman Learning Center ","3606 S. Indiana Ave.","Joplin","Missouri","64804","US","<MISSING>","417-347-1610","Urology","<MISSING>","<MISSING>","<MISSING>","https://freemanhealth.com/location/freeman-learning-center"
"https://freemanhealth.com"," Freeman Urology Associates ","3302 McIntosh Circle Suite 2 ","Joplin","Missouri","64804","US","<MISSING>","417-347-3703","Urology","<MISSING>","<MISSING>","Monday: 8:00am - 5:00pmTuesday: 8:00am - 5:00pmWednesday: 8:00am - 5:00pmThursday: 8:00am - 5:00pmFriday: 8:00am - 5:00pm","https://freemanhealth.com/location/freeman-urology-associates"
"https://freemanhealth.com"," Midwest Urology Center, PC ","2709 West 13th Street ","Joplin","Missouri","64804","US","<MISSING>","417-347-1111","Urology","<MISSING>","<MISSING>","<MISSING>","https://freemanhealth.com/node/3401"
"https://freemanhealth.com"," Ozark Center - Hope Spring ","3901 East 32nd Street","Joplin","Missouri","64804","US","<MISSING>","417-347-7567","Veterans Services","<MISSING>","<MISSING>","<MISSING>","https://freemanhealth.com/location/ozark-center-hope-spring"
"https://freemanhealth.com"," Freeman Learning Center ","3606 S. Indiana Ave.","Joplin","Missouri","64804","US","<MISSING>","417-347-1610","Women's Services","<MISSING>","<MISSING>","<MISSING>","https://freemanhealth.com/location/freeman-learning-center"
"https://freemanhealth.com"," Freeman Neosho Hospital ","113 West Hickory Street","Neosho","Missouri","64850","US","<MISSING>","417-451-1234","Women's Services","<MISSING>","<MISSING>","<MISSING>","https://freemanhealth.com/location/freeman-neosho-hospital"
"https://freemanhealth.com"," Freeman OB/GYN Associates ","1532 West 32nd StreetSuite 201","Joplin","Missouri","64804","US","<MISSING>","417-347-8660","Women's Services","<MISSING>","<MISSING>","Monday: 8:00 am - 5:00 pmTuesday: 8:00 am - 5:00 pmWednesday: 8:00 am - 5:00 pmThursday: 8:00 am - 5:00 pmFriday: 8:00 am - 4:45 pm","https://freemanhealth.com/location/freeman-obgyn-associates"
"https://freemanhealth.com"," Freeman Seneca Family Medicine ","1606 Olive Street","Seneca","Missouri","64865","US","<MISSING>","417-776-5900","Women's Services","<MISSING>","<MISSING>","Monday: 8:00 am - 4:00 pmTuesday: 8:00 am - 4:00 pmWednesday: 8:00 am - 4:00 pmThursday: 8:00 am - 4:00 pmFriday: 8:00 am - 12:00 pm","https://freemanhealth.com/location/freeman-seneca-family-medicine"
"https://freemanhealth.com"," Freeman Women's Center ","1532 West 32nd Street","Joplin","Missouri","64804","US","<MISSING>","417-347-7777","Women's Services","<MISSING>","<MISSING>","<MISSING>","https://freemanhealth.com/location/freeman-womens-center"
"https://freemanhealth.com"," Freeman Women's Healthcare Associates ","1532 West 32nd StreetSuite 401","Joplin","Missouri","64804","US","<MISSING>","417-347-7009","Women's Services","<MISSING>","<MISSING>","Monday: 8:00 am - 5:00 pmTuesday: 8:00 am - 5:00 pmWednesday: 8:00 am - 5:00 pmThursday: 8:00 am - 5:00 pmFriday: 8:00 am - 4:00 pm","https://freemanhealth.com/location/freeman-womens-healthcare-associates"
"https://freemanhealth.com"," John Chesney, MD ","1002 McIntosh CircleSuite 2","Joplin","Missouri","64804","US","<MISSING>","417-782-3500","Women's Services","<MISSING>","<MISSING>","<MISSING>","https://freemanhealth.com/location/john-chesney-md"
"https://freemanhealth.com"," Ozark Obstetrics & Gynecology ","1532 West 32nd Street","Joplin","Missouri","64804","US","<MISSING>","417-347-2525","Women's Services","<MISSING>","<MISSING>","Monday: 8:00 am - 5:00 pmTuesday: 8:00 am - 5:00 pmWednesday: 8:00 am - 5:00 pmThursday: 8:00 am - 5:00 pmFriday: 8:00 am - 4:00 pm","https://freemanhealth.com/location/ozark-obstetrics-gynecology"
"https://freemanhealth.com"," Care For Women Joplin ","2531 East 32nd Street","Joplin","Missouri","64804","US","<MISSING>","417-623-1222","Women's Services","<MISSING>","<MISSING>","<MISSING>","https://freemanhealth.com/location/care-for-women-joplin"
"https://freemanhealth.com"," Freeman Hospital West ","1102 W. 32nd St.","Joplin","Missouri","64804","US","<MISSING>","417-347-1111","Wound Care","<MISSING>","<MISSING>","<MISSING>","https://freemanhealth.com/location/freeman-hospital-west"
"https://freemanhealth.com"," Freeman Learning Center ","3606 S. Indiana Ave.","Joplin","Missouri","64804","US","<MISSING>","417-347-1610","Wound Care","<MISSING>","<MISSING>","<MISSING>","https://freemanhealth.com/location/freeman-learning-center"
"https://freemanhealth.com"," Freeman Neosho Physician Group ","336 South Jefferson","Neosho","Missouri","64850","US","<MISSING>","417-455-4200","Wound Care","<MISSING>","<MISSING>","Monday: 8:00 am - 5:00 pmTuesday: 8:00 am - 5:00 pmWednesday: 8:00 am - 5:00 pmThursday: 8:00 am - 5:00 pmFriday: 8:00 am - 5:00 pm","https://freemanhealth.com/location/freeman-neosho-physician-group"
"https://freemanhealth.com"," Freeman Wound Care & Hyperbaric Medicine ","3315 McIntosh Circle","Joplin","Missouri","64804","US","<MISSING>","417-347-4800","Wound Care","<MISSING>","<MISSING>","Monday: 8:00 am – 4:30 pmTuesday: 8:00 am – 4:30 pmWednesday: 8:00 am – 4:30 pmThursday: 8:00 am – 4:30 pmFriday: 8:00 am – 4:30 pm","https://freemanhealth.com/location/freeman-wound-care-hyperbaric-medicine"
